{
  "type": "FeatureCollection",
  "features": [
    {
      "type": "Feature",
      "properties": {
        "norad_id": 29914,
        "name": "FENGYUN 1C DEB",
        "group": "fengyun-1c-debris",
        "lat": -79.02413897442666,
        "lon": 151.1671361680042,
        "alt_km": 916.8487017929538,
        "timestamp": "2025-12-22T05:49:03.771730+00:00",
        "meta_object_name": "FENGYUN 1C DEB",
        "meta_object_id": "1999-025HL",
        "meta_epoch": "2025-12-21T20:51:10.044000",
        "meta_mean_motion": 14.0313266,
        "meta_eccentricity": 0.0036757,
        "meta_inclination": 98.8426,
        "meta_ra_of_asc_node": 24.1875,
        "meta_arg_of_pericenter": 90.1557,
        "meta_mean_anomaly": 87.463,
        "meta_ephemeris_type": 0,
        "meta_classification_type": "U",
        "meta_norad_cat_id": 29914,
        "meta_element_set_no": 999,
        "meta_rev_at_epoch": 96914,
        "meta_bstar": -4.4259e-05,
        "meta_mean_motion_dot": -1.12e-06,
        "meta_mean_motion_ddot": 0,
        "tle_line1": "1 29914U 99025HL  25355.86886625 -.00000112  00000+0 -44259-4 0  9992",
        "tle_line2": "2 29914  98.8426  24.1875 0036757  90.1557  87.4630 14.03132660969149"
      },
      "geometry": {
        "type": "Point",
        "coordinates": [
          151.1671361680042,
          -79.02413897442666
        ]
      }
    },
    {
      "type": "Feature",
      "properties": {
        "norad_id": 29916,
        "name": "FENGYUN 1C DEB",
        "group": "fengyun-1c-debris",
        "lat": 54.19926276854361,
        "lon": -152.1476219734606,
        "alt_km": 1103.793217261321,
        "timestamp": "2025-12-22T05:49:03.771740+00:00",
        "meta_object_name": "FENGYUN 1C DEB",
        "meta_object_id": "1999-025HN",
        "meta_epoch": "2025-12-21T18:50:52.524096",
        "meta_mean_motion": 13.56994216,
        "meta_eccentricity": 0.0271441,
        "meta_inclination": 99.1935,
        "meta_ra_of_asc_node": 14.4492,
        "meta_arg_of_pericenter": 235.3555,
        "meta_mean_anomaly": 180.566,
        "meta_ephemeris_type": 0,
        "meta_classification_type": "U",
        "meta_norad_cat_id": 29916,
        "meta_element_set_no": 999,
        "meta_rev_at_epoch": 93575,
        "meta_bstar": 0.00052806,
        "meta_mean_motion_dot": 4.34e-06,
        "meta_mean_motion_ddot": 0,
        "tle_line1": "1 29916U 99025HN  25355.78533014  .00000434  00000+0  52806-3 0  9997",
        "tle_line2": "2 29916  99.1935  14.4492 0271441 235.3555 180.5660 13.56994216935757"
      },
      "geometry": {
        "type": "Point",
        "coordinates": [
          -152.1476219734606,
          54.19926276854361
        ]
      }
    },
    {
      "type": "Feature",
      "properties": {
        "norad_id": 29917,
        "name": "FENGYUN 1C DEB",
        "group": "fengyun-1c-debris",
        "lat": -43.92659347475613,
        "lon": -134.1832934506174,
        "alt_km": 1136.0248412187839,
        "timestamp": "2025-12-22T05:49:03.771751+00:00",
        "meta_object_name": "FENGYUN 1C DEB",
        "meta_object_id": "1999-025HP",
        "meta_epoch": "2025-12-21T09:50:41.985024",
        "meta_mean_motion": 13.70432904,
        "meta_eccentricity": 0.02233033,
        "meta_inclination": 98.8766,
        "meta_ra_of_asc_node": 216.3905,
        "meta_arg_of_pericenter": 101.3585,
        "meta_mean_anomaly": 72.1684,
        "meta_ephemeris_type": 0,
        "meta_classification_type": "U",
        "meta_norad_cat_id": 29917,
        "meta_element_set_no": 999,
        "meta_rev_at_epoch": 94249,
        "meta_bstar": 0.0011822071,
        "meta_mean_motion_dot": 1.209e-05,
        "meta_mean_motion_ddot": 0,
        "tle_line1": "1 29917U 99025HP  25355.41020816  .00001209  00000+0  11822-2 0  9992",
        "tle_line2": "2 29917  98.8766 216.3905 0223303 101.3585  72.1684 13.70432904942495"
      },
      "geometry": {
        "type": "Point",
        "coordinates": [
          -134.1832934506174,
          -43.92659347475613
        ]
      }
    },
    {
      "type": "Feature",
      "properties": {
        "norad_id": 29918,
        "name": "FENGYUN 1C DEB",
        "group": "fengyun-1c-debris",
        "lat": 34.69301962091344,
        "lon": -94.90724203001092,
        "alt_km": 784.6573424515618,
        "timestamp": "2025-12-22T05:49:03.771761+00:00",
        "meta_object_name": "FENGYUN 1C DEB",
        "meta_object_id": "1999-025HQ",
        "meta_epoch": "2025-12-21T19:41:18.996864",
        "meta_mean_motion": 14.33662838,
        "meta_eccentricity": 0.0013347,
        "meta_inclination": 98.8545,
        "meta_ra_of_asc_node": 78.4662,
        "meta_arg_of_pericenter": 287.5112,
        "meta_mean_anomaly": 200.2974,
        "meta_ephemeris_type": 0,
        "meta_classification_type": "U",
        "meta_norad_cat_id": 29918,
        "meta_element_set_no": 999,
        "meta_rev_at_epoch": 97924,
        "meta_bstar": 0.0011135,
        "meta_mean_motion_dot": 3.046e-05,
        "meta_mean_motion_ddot": 0,
        "tle_line1": "1 29918U 99025HQ  25355.82035876  .00003046  00000+0  11135-2 0  9998",
        "tle_line2": "2 29918  98.8545  78.4662 0013347 287.5112 200.2974 14.33662838979246"
      },
      "geometry": {
        "type": "Point",
        "coordinates": [
          -94.90724203001092,
          34.69301962091344
        ]
      }
    },
    {
      "type": "Feature",
      "properties": {
        "norad_id": 29919,
        "name": "FENGYUN 1C DEB",
        "group": "fengyun-1c-debris",
        "lat": -53.43727510865389,
        "lon": -41.83719892052066,
        "alt_km": 939.9407272698863,
        "timestamp": "2025-12-22T05:49:03.771772+00:00",
        "meta_object_name": "FENGYUN 1C DEB",
        "meta_object_id": "1999-025HR",
        "meta_epoch": "2025-12-21T16:39:42.659136",
        "meta_mean_motion": 13.85126745,
        "meta_eccentricity": 0.0136987,
        "meta_inclination": 98.4795,
        "meta_ra_of_asc_node": 149.2706,
        "meta_arg_of_pericenter": 319.1977,
        "meta_mean_anomaly": 64.7072,
        "meta_ephemeris_type": 0,
        "meta_classification_type": "U",
        "meta_norad_cat_id": 29919,
        "meta_element_set_no": 999,
        "meta_rev_at_epoch": 95659,
        "meta_bstar": 0.00014731,
        "meta_mean_motion_dot": 1.4e-06,
        "meta_mean_motion_ddot": 0,
        "tle_line1": "1 29919U 99025HR  25355.69424374  .00000140  00000+0  14731-3 0  9997",
        "tle_line2": "2 29919  98.4795 149.2706 0136987 319.1977  64.7072 13.85126745956596"
      },
      "geometry": {
        "type": "Point",
        "coordinates": [
          -41.83719892052066,
          -53.43727510865389
        ]
      }
    },
    {
      "type": "Feature",
      "properties": {
        "norad_id": 29920,
        "name": "FENGYUN 1C DEB",
        "group": "fengyun-1c-debris",
        "lat": 26.189138895232713,
        "lon": -154.14843256884663,
        "alt_km": 940.9177864102121,
        "timestamp": "2025-12-22T05:49:03.771782+00:00",
        "meta_object_name": "FENGYUN 1C DEB",
        "meta_object_id": "1999-025HS",
        "meta_epoch": "2025-12-21T12:34:58.800288",
        "meta_mean_motion": 14.03693596,
        "meta_eccentricity": 0.01249732,
        "meta_inclination": 98.3912,
        "meta_ra_of_asc_node": 209.3515,
        "meta_arg_of_pericenter": 255.9523,
        "meta_mean_anomaly": 102.7727,
        "meta_ephemeris_type": 0,
        "meta_classification_type": "U",
        "meta_norad_cat_id": 29920,
        "meta_element_set_no": 999,
        "meta_rev_at_epoch": 96411,
        "meta_bstar": 0.0011522683,
        "meta_mean_motion_dot": 1.901e-05,
        "meta_mean_motion_ddot": 0,
        "tle_line1": "1 29920U 99025HS  25355.52429167  .00001901  00000+0  11523-2 0  9997",
        "tle_line2": "2 29920  98.3912 209.3515 0124973 255.9523 102.7727 14.03693596964111"
      },
      "geometry": {
        "type": "Point",
        "coordinates": [
          -154.14843256884663,
          26.189138895232713
        ]
      }
    },
    {
      "type": "Feature",
      "properties": {
        "norad_id": 29921,
        "name": "FENGYUN 1C DEB",
        "group": "fengyun-1c-debris",
        "lat": -37.51143814397693,
        "lon": 8.903284534380756,
        "alt_km": 871.9537530485813,
        "timestamp": "2025-12-22T05:49:03.771792+00:00",
        "meta_object_name": "FENGYUN 1C DEB",
        "meta_object_id": "1999-025HT",
        "meta_epoch": "2025-12-21T18:55:27.702048",
        "meta_mean_motion": 14.06653006,
        "meta_eccentricity": 0.0046165,
        "meta_inclination": 98.7866,
        "meta_ra_of_asc_node": 1.6438,
        "meta_arg_of_pericenter": 44.629,
        "meta_mean_anomaly": 140.7558,
        "meta_ephemeris_type": 0,
        "meta_classification_type": "U",
        "meta_norad_cat_id": 29921,
        "meta_element_set_no": 999,
        "meta_rev_at_epoch": 97003,
        "meta_bstar": 0.00034123,
        "meta_mean_motion_dot": 5.29e-06,
        "meta_mean_motion_ddot": 0,
        "tle_line1": "1 29921U 99025HT  25355.78851507  .00000529  00000+0  34123-3 0  9990",
        "tle_line2": "2 29921  98.7866   1.6438 0046165  44.6290 140.7558 14.06653006970038"
      },
      "geometry": {
        "type": "Point",
        "coordinates": [
          8.903284534380756,
          -37.51143814397693
        ]
      }
    }
  ]
}